[{"OBJECT_NAME":"STARLINK-5885","OBJECT_ID":"2023-058AM","EPOCH":"2026-03-09T21:32:14.476992","MEAN_MOTION":15.01261956,"ECCENTRICITY":0.00029947,"INCLINATION":97.6049,"RA_OF_ASC_NODE":70.4347,"ARG_OF_PERICENTER":117.4705,"MEAN_ANOMALY":242.6825,"EPHEMERIS_TYPE":0,"CLASSIFICATION_TYPE":"U","NORAD_CAT_ID":56352,"ELEMENT_SET_NO":999,"REV_AT_EPOCH":15816,"BSTAR":1.6721025e-5,"MEAN_MOTION_DOT":1.56e-6,"MEAN_MOTION_DDOT":0},{"OBJECT_NAME":"SL-8 DEB","OBJECT_ID":"1981-041D","EPOCH":"2026-03-09T21:47:25.057824","MEAN_MOTION":15.02958497,"ECCENTRICITY":0.00072626,"INCLINATION":74.0316,"RA_OF_ASC_NODE":15.8034,"ARG_OF_PERICENTER":178.7148,"MEAN_ANOMALY":237.7014,"EPHEMERIS_TYPE":0,"CLASSIFICATION_TYPE":"U","NORAD_CAT_ID":14346,"ELEMENT_SET_NO":999,"REV_AT_EPOCH":27979,"BSTAR":0.0011219118,"MEAN_MOTION_DOT":0.00015083,"MEAN_MOTION_DDOT":0}]
